satname,norad_id,inclination_deg,eccentricity,mean_motion_rev_per_day,perigee_km,apogee_km,l1,l2
STARLINK-1557,46034,53.0734,0.000185,15.11677141,529.8067438491817,532.3631559706491,1 46034U 20055H   26061.91668981  .00039940  00000+0  23246-2 0  9995,2 46034  53.0734 156.9648 0001850  54.1993  35.9996 15.11677141  5836
STARLINK-1558,46035,53.0607,3.06e-05,15.08969898,539.1346962364441,539.5580462187636,1 46035U 20055J   26061.91668981  .00036427  00000+0  22868-2 0  9992,2 46035  53.0607 157.0166 0000306  43.5165 338.1345 15.08969898  5432
STARLINK-1560,46036,53.0547,6.69e-05,15.06576591,546.2071152094804,547.133654437569,1 46036U 20055K   26061.56696549  .00024894  00000+0  16763-2 0  9997,2 46036  53.0547 158.5939 0000669  57.9104 302.1950 15.06576591307827
STARLINK-1567,46038,53.055,0.000127,15.0640566,546.3146938439968,548.0737279715668,1 46038U 20055M   26061.64452919  .00003675  00000+0  26546-3 0  9994,2 46038  53.0550 158.2467 0001270  83.2796 276.8337 15.06405660307828
STARLINK-1569,46039,53.0659,9.99e-05,15.09756395,536.2529364108714,537.6345695453165,1 46039U 20055N   26061.91668981  .00006702  00000+0  42802-3 0  9990,2 46039  53.0659 157.0036 0000999  89.1070 279.9107 15.09756395  5770
STARLINK-1582,46043,53.0544,0.0001447,15.06397845,546.2160638187297,548.2202616028189,1 46043U 20055S   26061.52657879  .00000066  00000+0  23324-4 0  9992,2 46043  53.0544 158.7763 0001447  90.1355 269.9800 15.06397845307806
STARLINK-1591,46045,53.0708,0.0001495,15.10912214,532.3834227394345,534.4499772957406,1 46045U 20055U   26061.91668981  .00009188  00000+0  56198-3 0  9991,2 46045  53.0708 156.9736 0001495  95.7474 109.4303 15.10912214  5838
STARLINK-1524,46047,53.1562,0.000128,15.29351427,476.87237337230545,478.6274804255909,1 46047U 20055W   26061.53078497  .00000186  00000+0  18781-4 0  9994,2 46047  53.1562 147.0479 0001280  91.0060 269.1087 15.29351427307972
STARLINK-1527,46048,53.1563,0.0001594,15.29354703,476.6473095081101,478.8329631391707,1 46048U 20055X   26061.47453175 -.00000356  00000+0  19060-8 0  9993,2 46048  53.1563 147.4353 0001594  89.8463 270.2720 15.29354703307943
STARLINK-1540,46051,53.1592,8.76e-05,15.29366031,477.10571013145636,478.30685387446374,1 46051U 20055AA  26061.56189538  .00004965  00000+0  18421-3 0  9990,2 46051  53.1592 146.9264 0000876  69.5323 290.5771 15.29366031307999
STARLINK-1541,46052,53.154,9.13e-05,15.29306484,477.2582912640528,478.5102007435735,1 46052U 20055AB  26061.91668981  .00032278  00000+0  11277-2 0  9993,2 46052  53.1540 145.3324 0000913  72.7876 132.7132 15.29306484  5825
STARLINK-1543,46053,53.1559,0.0001305,15.29328655,476.9232815945161,478.7126858452666,1 46053U 20055AC  26061.91668981  .00001782  00000+0  74140-4 0  9990,2 46053  53.1559 145.3526 0001305  98.0442  75.8192 15.29328655  5823
STARLINK-1548,46054,53.1565,0.000109,15.29361238,476.97331760416,478.46789456228544,1 46054U 20055AD  26061.91668981 -.00012380  00000+0 -41734-3 0  9991,2 46054  53.1565 145.3538 0001090  76.4288  56.9213 15.29361238  5786
STARLINK-1554,46055,53.1543,0.0001751,15.29310292,476.67237762454624,479.0733522792525,1 46055U 20055AE  26061.91668981  .00041014  00000+0  14278-2 0  9998,2 46055  53.1543 145.4884 0001751  73.0600  66.5759 15.29310292  5835
STARLINK-1564,46058,53.1563,0.0001074,15.29396168,476.87991014097406,478.35252593220866,1 46058U 20055AH  26061.91668981 -.00003103  00000+0 -95111-4 0  9997,2 46058  53.1563 145.8262 0001074  70.8237  77.0990 15.29396168  5787
STARLINK-1570,46059,53.1575,0.0001191,15.29361082,476.9045396005713,478.53760499339296,1 46059U 20055AJ  26061.52684518 -.00000617  00000+0 -90573-5 0  9994,2 46059  53.1575 147.1732 0001191  91.7705 268.3432 15.29361082307935
STARLINK-1572,46060,53.1545,0.0001285,15.29359932,476.843530927702,478.6054873355488,1 46060U 20055AK  26061.91668981 -.00014990  00000+0 -50810-3 0  9992,2 46060  53.1545 145.5119 0001285  89.9597 196.8188 15.29359932  5835
STARLINK-1573,46061,53.1601,0.0001235,15.30216242,474.3201911725064,476.01295715532524,1 46061U 20055AL  26061.91668981 -.00010157  00000+0 -33109-3 0  9996,2 46061  53.1601 145.3230 0001235  84.4543 346.4802 15.30216242  5831
STARLINK-1577,46063,53.155,0.0001136,15.29352206,476.9687703045738,478.52642728542014,1 46063U 20055AN  26061.60231853 -.00005967  00000+0 -19463-3 0  9998,2 46063  53.1550 146.7399 0001136  85.1170 274.9960 15.29352206307981
STARLINK-1583,46064,53.1576,0.0001317,15.29361506,476.8168888108403,478.62272149331693,1 46064U 20055AP  26061.57123513  .00001892  00000+0  77854-4 0  9998,2 46064  53.1576 146.9015 0001317  89.8225 270.2926 15.29361506307973
STARLINK-1525,46066,53.0532,0.0001137,15.07975874,541.5990742051499,543.1728011211753,1 46066U 20055AR  26061.91668981  .00028699  00000+0  18570-2 0  9993,2 46066  53.0532 127.0176 0001137 113.5432 132.0324 15.07975874  5785
STARLINK-1536,46070,53.0556,0.0001411,15.06395551,546.2480249105583,548.2023621215694,1 46070U 20055AV  26061.45193695  .00001782  00000+0  13851-3 0  9994,2 46070  53.0556 129.1114 0001411  90.5500 269.5650 15.06395551308226
STARLINK-1542,46073,53.0546,0.0001256,15.06401319,546.3376921250647,548.0773386673318,1 46073U 20055AY  26061.44456709  .00002653  00000+0  19695-3 0  9994,2 46073  53.0546 129.1442 0001256  82.0021 278.1111 15.06401319308210
STARLINK-1549,46074,53.0551,0.000137,15.06397065,546.2717793203619,548.1693272899674,1 46074U 20055AZ  26061.49617120  .00000828  00000+0  74495-4 0  9998,2 46074  53.0551 128.9125 0001370  86.9666 273.1480 15.06397065308213
STARLINK-1551,46075,53.055,0.0001503,15.06390263,546.2005162280284,548.2822849752492,1 46075U 20055BA  26061.45563424  .00000650  00000+0  62553-4 0  9997,2 46075  53.0550 129.0948 0001503  90.0268 270.0893 15.06390263308217
STARLINK-1552,46076,53.0544,0.0001484,15.06409445,546.1548930946519,548.2103279550556,1 46076U 20055BB  26061.61410965  .00003122  00000+0  22832-3 0  9999,2 46076  53.0544 128.3791 0001484 101.2339 258.8817 15.06409445308225
STARLINK-1559,46077,53.0258,0.0003494,15.28787316,477.0403008175881,481.8323730654429,1 46077U 20055BC  26061.43612987  .00029989  00000+0  10656-2 0  9997,2 46077  53.0258 107.6868 0003494   7.1226 352.9822 15.28787316308474
STARLINK-1566,46079,53.055,0.0001546,15.06405016,546.125528153023,548.2668411737204,1 46079U 20055BE  26061.49985743  .00005387  00000+0  38023-3 0  9993,2 46079  53.0550 128.8975 0001546  93.8319 266.2847 15.06405016308223
